{
  "type": "FeatureCollection",
  "features": [
    {
      "type": "Feature",
      "properties": {
        "norad_id": 34079,
        "name": "IRIDIUM 33 DEB",
        "group": "iridium-33-debris",
        "lat": -71.65952116040911,
        "lon": -163.9388927421752,
        "alt_km": 624.898741640739,
        "timestamp": "2025-12-20T16:47:36.669450+00:00",
        "meta_object_name": "IRIDIUM 33 DEB",
        "meta_object_id": "1997-051CN",
        "meta_epoch": "2025-12-20T07:37:00.373152",
        "meta_mean_motion": 14.83707217,
        "meta_eccentricity": 0.0004716,
        "meta_inclination": 86.3768,
        "meta_ra_of_asc_node": 5.2156,
        "meta_arg_of_pericenter": 341.2972,
        "meta_mean_anomaly": 29.7285,
        "meta_ephemeris_type": 0,
        "meta_classification_type": "U",
        "meta_norad_cat_id": 34079,
        "meta_element_set_no": 999,
        "meta_rev_at_epoch": 89090,
        "meta_bstar": 0.0011459,
        "meta_mean_motion_dot": 9.499e-05,
        "meta_mean_motion_ddot": 0,
        "tle_line1": "1 34079U 97051CN  25354.31736543  .00009499  00000+0  11459-2 0  9998",
        "tle_line2": "2 34079  86.3768   5.2156 0004716 341.2972  29.7285 14.83707217890907"
      },
      "geometry": {
        "type": "Point",
        "coordinates": [
          -163.9388927421752,
          -71.65952116040911
        ]
      }
    },
    {
      "type": "Feature",
      "properties": {
        "norad_id": 34088,
        "name": "IRIDIUM 33 DEB",
        "group": "iridium-33-debris",
        "lat": -30.54515094823622,
        "lon": -150.79562802947297,
        "alt_km": 596.4283608268961,
        "timestamp": "2025-12-20T16:47:36.669461+00:00",
        "meta_object_name": "IRIDIUM 33 DEB",
        "meta_object_id": "1997-051CX",
        "meta_epoch": "2025-12-20T01:29:37.281120",
        "meta_mean_motion": 14.9169164,
        "meta_eccentricity": 0.0006466,
        "meta_inclination": 86.3842,
        "meta_ra_of_asc_node": 27.3589,
        "meta_arg_of_pericenter": 153.3403,
        "meta_mean_anomaly": 235.9617,
        "meta_ephemeris_type": 0,
        "meta_classification_type": "U",
        "meta_norad_cat_id": 34088,
        "meta_element_set_no": 999,
        "meta_rev_at_epoch": 88851,
        "meta_bstar": 0.0014202951,
        "meta_mean_motion_dot": 0.00014326,
        "meta_mean_motion_ddot": 0,
        "tle_line1": "1 34088U 97051CX  25354.06223705  .00014326  00000+0  14203-2 0  9996",
        "tle_line2": "2 34088  86.3842  27.3589 0006466 153.3403 235.9617 14.91691640888515"
      },
      "geometry": {
        "type": "Point",
        "coordinates": [
          -150.79562802947297,
          -30.54515094823622
        ]
      }
    },
    {
      "type": "Feature",
      "properties": {
        "norad_id": 34091,
        "name": "IRIDIUM 33 DEB",
        "group": "iridium-33-debris",
        "lat": 54.358038040066056,
        "lon": -121.93199243131691,
        "alt_km": 634.8635977785225,
        "timestamp": "2025-12-20T16:47:36.669471+00:00",
        "meta_object_name": "IRIDIUM 33 DEB",
        "meta_object_id": "1997-051DA",
        "meta_epoch": "2025-12-20T11:21:59.020128",
        "meta_mean_motion": 14.82341401,
        "meta_eccentricity": 0.0034041,
        "meta_inclination": 86.3417,
        "meta_ra_of_asc_node": 63.2908,
        "meta_arg_of_pericenter": 265.3506,
        "meta_mean_anomaly": 94.3828,
        "meta_ephemeris_type": 0,
        "meta_classification_type": "U",
        "meta_norad_cat_id": 34091,
        "meta_element_set_no": 999,
        "meta_rev_at_epoch": 87981,
        "meta_bstar": 0.0030473,
        "meta_mean_motion_dot": 0.00024698,
        "meta_mean_motion_ddot": 0,
        "tle_line1": "1 34091U 97051DA  25354.47359977  .00024698  00000+0  30473-2 0  9996",
        "tle_line2": "2 34091  86.3417  63.2908 0034041 265.3506  94.3828 14.82341401879810"
      },
      "geometry": {
        "type": "Point",
        "coordinates": [
          -121.93199243131691,
          54.358038040066056
        ]
      }
    },
    {
      "type": "Feature",
      "properties": {
        "norad_id": 34097,
        "name": "IRIDIUM 33 DEB",
        "group": "iridium-33-debris",
        "lat": 78.34764810041173,
        "lon": 159.09304224817478,
        "alt_km": 801.4860074590633,
        "timestamp": "2025-12-20T16:47:36.669482+00:00",
        "meta_object_name": "IRIDIUM 33 DEB",
        "meta_object_id": "1997-051DG",
        "meta_epoch": "2025-12-20T11:18:18.737280",
        "meta_mean_motion": 14.34833925,
        "meta_eccentricity": 0.0081731,
        "meta_inclination": 86.2,
        "meta_ra_of_asc_node": 357.9952,
        "meta_arg_of_pericenter": 336.8917,
        "meta_mean_anomaly": 22.861,
        "meta_ephemeris_type": 0,
        "meta_classification_type": "U",
        "meta_norad_cat_id": 34097,
        "meta_element_set_no": 999,
        "meta_rev_at_epoch": 87230,
        "meta_bstar": 0.0010166,
        "meta_mean_motion_dot": 3.014e-05,
        "meta_mean_motion_ddot": 0,
        "tle_line1": "1 34097U 97051DG  25354.47105020  .00003014  00000+0  10166-2 0  9996",
        "tle_line2": "2 34097  86.2000 357.9952 0081731 336.8917  22.8610 14.34833925872309"
      },
      "geometry": {
        "type": "Point",
        "coordinates": [
          159.09304224817478,
          78.34764810041173
        ]
      }
    },
    {
      "type": "Feature",
      "properties": {
        "norad_id": 34145,
        "name": "IRIDIUM 33 DEB",
        "group": "iridium-33-debris",
        "lat": -44.558596572731666,
        "lon": 152.7219548849614,
        "alt_km": 793.8630043821449,
        "timestamp": "2025-12-20T16:47:36.669493+00:00",
        "meta_object_name": "IRIDIUM 33 DEB",
        "meta_object_id": "1997-051DY",
        "meta_epoch": "2025-12-20T09:05:57.135264",
        "meta_mean_motion": 14.42338365,
        "meta_eccentricity": 0.0055736,
        "meta_inclination": 86.2115,
        "meta_ra_of_asc_node": 329.1236,
        "meta_arg_of_pericenter": 69.5659,
        "meta_mean_anomaly": 291.1513,
        "meta_ephemeris_type": 0,
        "meta_classification_type": "U",
        "meta_norad_cat_id": 34145,
        "meta_element_set_no": 999,
        "meta_rev_at_epoch": 87748,
        "meta_bstar": 0.00077022,
        "meta_mean_motion_dot": 2.611e-05,
        "meta_mean_motion_ddot": 0,
        "tle_line1": "1 34145U 97051DY  25354.37913351  .00002611  00000+0  77022-3 0  9990",
        "tle_line2": "2 34145  86.2115 329.1236 0055736  69.5659 291.1513 14.42338365877489"
      },
      "geometry": {
        "type": "Point",
        "coordinates": [
          152.7219548849614,
          -44.558596572731666
        ]
      }
    },
    {
      "type": "Feature",
      "properties": {
        "norad_id": 34146,
        "name": "IRIDIUM 33 DEB",
        "group": "iridium-33-debris",
        "lat": 54.92407285904852,
        "lon": -8.404383759712973,
        "alt_km": 737.4957848255781,
        "timestamp": "2025-12-20T16:47:36.669503+00:00",
        "meta_object_name": "IRIDIUM 33 DEB",
        "meta_object_id": "1997-051DZ",
        "meta_epoch": "2025-12-20T10:36:37.304352",
        "meta_mean_motion": 14.49095208,
        "meta_eccentricity": 0.0026261,
        "meta_inclination": 86.283,
        "meta_ra_of_asc_node": 346.3974,
        "meta_arg_of_pericenter": 194.7947,
        "meta_mean_anomaly": 317.4256,
        "meta_ephemeris_type": 0,
        "meta_classification_type": "U",
        "meta_norad_cat_id": 34146,
        "meta_element_set_no": 999,
        "meta_rev_at_epoch": 88218,
        "meta_bstar": 0.00059945,
        "meta_mean_motion_dot": 2.307e-05,
        "meta_mean_motion_ddot": 0,
        "tle_line1": "1 34146U 97051DZ  25354.44209843  .00002307  00000+0  59945-3 0  9999",
        "tle_line2": "2 34146  86.2830 346.3974 0026261 194.7947 317.4256 14.49095208882188"
      },
      "geometry": {
        "type": "Point",
        "coordinates": [
          -8.404383759712973,
          54.92407285904852
        ]
      }
    },
    {
      "type": "Feature",
      "properties": {
        "norad_id": 34159,
        "name": "IRIDIUM 33 DEB",
        "group": "iridium-33-debris",
        "lat": -7.4991390861616924,
        "lon": -134.67113364105472,
        "alt_km": 761.7438013544115,
        "timestamp": "2025-12-20T16:47:36.669514+00:00",
        "meta_object_name": "IRIDIUM 33 DEB",
        "meta_object_id": "1997-051EN",
        "meta_epoch": "2025-12-20T04:14:10.387968",
        "meta_mean_motion": 14.38510263,
        "meta_eccentricity": 0.00260188,
        "meta_inclination": 86.3501,
        "meta_ra_of_asc_node": 45.0705,
        "meta_arg_of_pericenter": 261.5269,
        "meta_mean_anomaly": 98.298,
        "meta_ephemeris_type": 0,
        "meta_classification_type": "U",
        "meta_norad_cat_id": 34159,
        "meta_element_set_no": 999,
        "meta_rev_at_epoch": 88066,
        "meta_bstar": 0.00026554741,
        "meta_mean_motion_dot": 8.33e-06,
        "meta_mean_motion_ddot": 0,
        "tle_line1": "1 34159U 97051EN  25354.17650912  .00000833  00000+0  26555-3 0  9993",
        "tle_line2": "2 34159  86.3501  45.0705 0026018 261.5269  98.2980 14.38510263880663"
      },
      "geometry": {
        "type": "Point",
        "coordinates": [
          -134.67113364105472,
          -7.4991390861616924
        ]
      }
    }
  ]
}